NORAD_CAT_ID,OBJECT_NAME,OBJECT_TYPE,EPOCH,MEAN_MOTION,ECCENTRICITY,INCLINATION,RA_OF_ASC_NODE,ARG_OF_PERICENTER,MEAN_ANOMALY,BSTAR,MEAN_MOTION_DOT,MEAN_MOTION_DDOT,TLE_LINE0,TLE_LINE1,TLE_LINE2,SEMIMAJOR_AXIS,PERIOD,APOGEE,PERIGEE,DECAYED
54093.0,STARLINK-5213,PAYLOAD,2022-10-25 18:00:00,15.90239245,0.0030245,53.2173,122.8387,55.9726,292.7289,-0.0041443999999999,-0.0133842,0.000511,0 STARLINK-5213,1 54093U 22136AU  22298.75001157 -.01338420  51100-3 -41444-2 0  9996,2 54093  53.2173 122.8387 0030245  55.9726 292.7289 15.90239245  1306,6679.75,90.552,321.818,281.41200000000003,0.0
54093.0,STARLINK-5213,PAYLOAD,2022-10-25 22:00:01,15.89808955,0.0028978,53.2174,121.9942,56.9299,166.4038,-0.0042893,-0.01349972,0.00051696,0 STARLINK-5213,1 54093U 22136AU  22298.91668981 -.01349972  51696-3 -42893-2 0  9991,2 54093  53.2174 121.9942 0028978  56.9299 166.4038 15.89808955  1307,6680.955,90.577,322.18,283.46,0.0
54093.0,STARLINK-5213,PAYLOAD,2022-10-26 06:00:00,15.88937094,0.0025729,53.2175,120.303,56.8257,274.7945,-0.0044869,-0.01339912,0.00050581,0 STARLINK-5213,1 54093U 22136AU  22299.25001157 -.01339912  50581-3 -44869-2 0  9995,2 54093  53.2175 120.3030 0025729  56.8257 274.7945 15.88937094  1376,6683.399,90.627,322.459,288.068,0.0
54093.0,STARLINK-5213,PAYLOAD,2022-10-26 14:00:01,15.88049852,0.0021885999999999,53.2174,118.6154,56.0793,22.8554,-0.0045793,-0.01297594,0.00047317,0 STARLINK-5213,1 54093U 22136AU  22299.58334491 -.01297594  47317-3 -45793-2 0  9990,2 54093  53.2174 118.6154 0021886  56.0793  22.8554 15.88049852  1306,6685.888000000001,90.677,322.386,293.12,0.0
54093.0,STARLINK-5213,PAYLOAD,2022-10-26 22:00:00,15.87202654,0.0018463,53.2176,116.9323,54.2089,130.9825,-0.0049688,-0.01341251,0.00049869,0 STARLINK-5213,1 54093U 22136AU  22299.91667824 -.01341251  49869-3 -49688-2 0  9997,2 54093  53.2176 116.9323 0018463  54.2089 130.9825 15.87202654  1304,6688.267,90.726,322.48,297.783,0.0
54093.0,STARLINK-5213,PAYLOAD,2022-10-27 14:00:01,15.85403147,0.0012335999999999,53.2171,113.5664,53.1619,341.5289,-0.0050379,-0.01099467,0.0,0 STARLINK-5213,1 54093U 22136AU  22300.58335648 -.01099467  00000-0 -50379-2 0  9998,2 54093  53.2171 113.5664 0012336  53.1619 341.5289 15.85403147  1302,6693.3269999999975,90.829,323.449,306.935,0.0
54093.0,STARLINK-5213,PAYLOAD,2022-10-27 22:00:00,15.84574856,0.0008792,53.2174,111.8901,47.4689,90.2679,-0.0055074,-0.01142948,0.0,0 STARLINK-5213,1 54093U 22136AU  22300.91667824 -.01142948  00000-0 -55074-2 0  9999,2 54093  53.2174 111.8901 0008792  47.4689  90.2679 15.84574856  1300,6695.659000000002,90.876,323.411,311.637,0.0
54093.0,STARLINK-5213,PAYLOAD,2022-10-28 08:00:01,15.83513278,0.0004846,53.2174,109.7923,29.2504,325.9982,-0.0060191,-0.01199703,0.0,0 STARLINK-5213,1 54093U 22136AU  22301.33335648 -.01199703  00000-0 -60191-2 0  9999,2 54093  53.2174 109.7923 0004846  29.2504 325.9982 15.83513278  1710,6698.651,90.937,323.762,317.27,0.0
54093.0,STARLINK-5213,PAYLOAD,2022-10-28 14:00:01,15.8286986,0.0003563,53.2174,108.5372,9.7877,331.1472,-0.0062751,-0.01210402,0.0,0 STARLINK-5213,1 54093U 22136AU  22301.58335648 -.01210402  00000-0 -62751-2 0  9990,2 54093  53.2174 108.5372 0003563   9.7877 331.1472 15.82869860  1304,6700.465999999999,90.974,324.719,319.944,0.0
54093.0,STARLINK-5213,PAYLOAD,2022-10-28 22:00:01,15.81972709,0.0003346,53.2173,106.867,314.4584,126.4922,-0.006252,-0.011614,0.0,0 STARLINK-5213,1 54093U 22136AU  22301.91668981 -.01161400  00000-0 -62520-2 0  9993,2 54093  53.2173 106.8670 0003346 314.4584 126.4922 15.81972709  1306,6702.999,91.026,327.107,322.622,0.0
54093.0,STARLINK-5213,PAYLOAD,2022-10-29 12:00:00,15.80593161,0.0006472,53.2171,103.9436,272.7806,250.5371,-0.0078403999999999,-0.01343085,0.0,0 STARLINK-5213,1 54093U 22136AU  22302.50001157 -.01343085  00000-0 -78404-2 0  9994,2 54093  53.2171 103.9436 0006472 272.7806 250.5371 15.80593161  1305,6706.899,91.105,333.105,324.423,0.0
54093.0,STARLINK-5213,PAYLOAD,2022-10-29 22:00:01,15.79388469,0.0005442,53.2174,101.8629,270.7411,103.9638,-0.0072481,-0.01191902,0.0,0 STARLINK-5213,1 54093U 22136AU  22302.91668981 -.01191902  00000-0 -72481-2 0  9991,2 54093  53.2174 101.8629 0005442 270.7411 103.9638 15.79388469  1303,6710.309,91.175,335.826,328.522,0.0
54093.0,STARLINK-5213,PAYLOAD,2022-10-30 00:00:00,15.7919093,0.0004463999999999,53.2173,101.4464,272.0024,216.6873,-0.0075515,-0.01225408,0.0,0 STARLINK-5213,1 54093U 22136AU  22303.00001157 -.01225408  00000-0 -75515-2 0  9998,2 54093  53.2173 101.4464 0004464 272.0024 216.6873 15.79190930  1973,6710.869000000002,91.186,335.73,329.73800000000006,0.0
54093.0,STARLINK-5213,PAYLOAD,2022-10-30 14:00:01,15.77667185,0.0002044,53.2174,98.5366,284.3843,280.8752,-0.0079991,-0.01211032,0.0,0 STARLINK-5213,1 54093U 22136AU  22303.58334491 -.01211032  00000-0 -79991-2 0  9991,2 54093  53.2174  98.5366 0002044 284.3843 280.8752 15.77667185  1303,6715.189,91.274,338.427,335.682,0.0
54093.0,STARLINK-5213,PAYLOAD,2022-10-30 22:00:01,15.76793771,2.34e-05,53.2172,96.8788,30.5834,268.4917,-0.0082437999999999,-0.01200343,0.0,0 STARLINK-5213,1 54093U 22136AU  22303.91668981 -.01200343  00000-0 -82438-2 0  9995,2 54093  53.2172  96.8788 0000234  30.5834 268.4917 15.76793771  1305,6717.669,91.325,339.691,339.376,0.0
54093.0,STARLINK-5213,PAYLOAD,2022-10-31 14:00:01,15.75052647,0.0001238,53.2173,93.5651,63.6407,59.7397,-0.0088582,-0.01195027,0.0,0 STARLINK-5213,1 54093U 22136AU  22304.58334491 -.01195027  00000-0 -88582-2 0  9993,2 54093  53.2173  93.5651 0001238  63.6407  59.7397 15.75052647  1309,6722.618,91.426,345.316,343.651,0.0
54093.0,STARLINK-5213,PAYLOAD,2022-10-31 22:00:01,15.74060143,0.0001176,53.2172,91.9133,70.5294,143.5575,-0.0065459,-0.00861767,0.0,0 STARLINK-5213,1 54093U 22136AU  22304.91668981 -.00861767  00000-0 -65459-2 0  9992,2 54093  53.2172  91.9133 0001176  70.5294 143.5575 15.74060143  1306,6725.444,91.483,348.1,346.51800000000014,0.0
54093.0,STARLINK-5213,PAYLOAD,2022-11-01 06:00:00,15.73299318,0.000131,53.2175,90.2606,63.2826,240.3343,-0.0010866,-0.00151051,0.0,0 STARLINK-5213,1 54093U 22136AU  22305.25001157 -.00151051  00000-0 -10866-2 0  9996,2 54093  53.2175  90.2606 0001310  63.2826 240.3343 15.73299318  2325,6727.611999999999,91.527,350.358,348.596,0.0
54093.0,STARLINK-5213,PAYLOAD,2022-11-01 14:00:01,15.73164716,0.0001906,53.2162,88.6155,66.2572,326.1596,0.00028707,0.00039799,0.0,0 STARLINK-5213,1 54093U 22136AU  22305.58334491  .00039799  00000-0  28707-3 0  9998,2 54093  53.2162  88.6155 0001906  66.2572 326.1596 15.73164716  1306,6727.996,91.535,351.14300000000014,348.57800000000015,0.0
54093.0,STARLINK-5213,PAYLOAD,2022-11-01 22:00:00,15.73194101,0.0001937,53.2157,86.9668,59.8024,61.5164,0.00071458,0.00100856,0.0,0 STARLINK-5213,1 54093U 22136AU  22305.91667824  .00100856  00000-0  71458-3 0  9998,2 54093  53.2157  86.9668 0001937  59.8024  61.5164 15.73194101  1306,6727.9119999999975,91.534,351.08,348.474,0.0
54093.0,STARLINK-5213,PAYLOAD,2022-11-02 06:00:00,15.7326207,0.0001691,53.2159,85.3151,64.2294,146.055,0.00027953,0.00038897,0.0,0 STARLINK-5213,1 54093U 22136AU  22306.25001157  .00038897  00000-0  27953-3 0  9993,2 54093  53.2159  85.3151 0001691  64.2294 146.0550 15.73262070  2483,6727.718000000003,91.53,350.721,348.446,0.0
54093.0,STARLINK-5213,PAYLOAD,2022-11-02 14:00:01,15.73304339,0.0001651,53.2167,83.6664,56.7715,242.5309,-0.00037746,-0.00053497,0.0,0 STARLINK-5213,1 54093U 22136AU  22306.58334491 -.00053497  00000-0 -37746-3 0  9995,2 54093  53.2167  83.6664 0001651  56.7715 242.5309 15.73304339  1301,6727.598000000001,91.527,350.5730000000001,348.352,0.0
54093.0,STARLINK-5213,PAYLOAD,2022-11-02 22:00:00,15.73247271,0.0001564999999999,53.2159,82.0175,41.2455,347.0717,-3.0431e-05,-4.898e-05,0.0,0 STARLINK-5213,1 54093U 22136AU  22306.91667824 -.00004898  00000-0 -30431-4 0  9997,2 54093  53.2159  82.0175 0001565  41.2455 347.0717 15.73247271  2593,6727.76,91.53,350.67800000000005,348.5730000000001,0.0
54093.0,STARLINK-5213,PAYLOAD,2022-11-03 14:00:01,15.73282783,0.0001609,53.2158,78.7178,41.6194,164.6621,-0.000542,-0.00076272,0.0,0 STARLINK-5213,1 54093U 22136AU  22307.58334491 -.00076272  00000-0 -54200-3 0  9996,2 54093  53.2158  78.7178 0001609  41.6194 164.6621 15.73282783  1302,6727.659000000002,91.528,350.607,348.44199999999995,0.0
54093.0,STARLINK-5213,PAYLOAD,2022-11-03 22:00:00,15.7324809,0.0001701,53.2154,77.0683,35.091,260.1936,5.4153e-05,7.001e-05,0.0,0 STARLINK-5213,1 54093U 22136AU  22307.91667824  .00007001  00000-0  54153-4 0  9992,2 54093  53.2154  77.0683 0001701  35.0910 260.1936 15.73248090  1301,6727.7580000000025,91.53,350.767,348.47900000000016,0.0
54093.0,STARLINK-5213,PAYLOAD,2022-11-04 14:00:01,15.73212777,0.0001738,53.2159,73.7687,34.4174,78.8424,2.8664e-05,3.406e-05,0.0,0 STARLINK-5213,1 54093U 22136AU  22308.58334491  .00003406  00000-0  28664-4 0  9990,2 54093  53.2159  73.7687 0001738  34.4174  78.8424 15.73212777  2858,6727.859,91.532,350.89300000000014,348.55400000000014,0.0
54093.0,STARLINK-5213,PAYLOAD,2022-11-04 22:00:01,15.73216213,0.0001812,53.2158,72.1193,30.0732,172.1069,-0.00042178,-0.00059442,0.0,0 STARLINK-5213,1 54093U 22136AU  22308.91668981 -.00059442  00000-0 -42178-3 0  9999,2 54093  53.2158  72.1193 0001812  30.0732 172.1069 15.73216213  2905,6727.849,91.532,350.93300000000005,348.495,0.0
54093.0,STARLINK-5213,PAYLOAD,2022-11-05 14:00:01,15.73108675,0.0002157,53.2159,68.8204,39.6812,340.2651,0.00039281,0.00054655,0.0,0 STARLINK-5213,1 54093U 22136AU  22309.58335648  .00054655  00000-0  39281-3 0  9994,2 54093  53.2159  68.8204 0002157  39.6812 340.2651 15.73108675  1308,6728.156,91.538,351.472,348.569,0.0
54093.0,STARLINK-5213,PAYLOAD,2022-11-05 22:00:01,15.73176123,0.0002199,53.2155,67.171,36.6932,72.0878,0.00039062,0.00054504,0.0,0 STARLINK-5213,1 54093U 22136AU  22309.91668981  .00054504  00000-0  39062-3 0  9990,2 54093  53.2155  67.1710 0002199  36.6932  72.0878 15.73176123  3063,6727.9630000000025,91.535,351.30800000000005,348.349,0.0
